[ {"name": "STARLINK-34419", "line1": "1 64412U 25129A   26099.16668981  .00042712  00000+0  35669-2 0  9993", "line2": "2 64412  70.0023 357.7562 0002935 277.6721 263.4650 14.98316077  5701"}, {"name": "STARLINK-34275", "line1": "1 64413U 25129B   26098.97913476 -.00350497  00000+0 -31621-1 0  9991", "line2": "2 64413  70.0022 358.1163 0005292 332.0331  28.0543 14.97376922 45822"}, {"name": "STARLINK-34225", "line1": "1 64414U 25129C   26099.16668981  .00040021  00000+0  33440-2 0  9991", "line2": "2 64414  70.0022 357.8109 0003054 274.7256 221.4578 14.98316641  5715"}, {"name": "STARLINK-34422", "line1": "1 64415U 25129D   26099.12058256  .00003640  00000+0  31263-3 0  9994", "line2": "2 64415  70.0021 357.8092 0002880 269.2765  90.8064 14.98337376 45783"}, {"name": "STARLINK-34514", "line1": "1 64416U 25129E   26099.14977236  .00002503  00000+0  21746-3 0  9997", "line2": "2 64416  70.0027 357.5120 0002770 264.6146  95.4697 14.98337656 45851"}, {"name": "STARLINK-34487", "line1": "1 64417U 25129F   26099.15394719  .00001981  00000+0  17377-3 0  9992", "line2": "2 64417  70.0022 357.5246 0002830 270.4640  89.6195 14.98335792 45797"}, {"name": "STARLINK-34461", "line1": "1 64418U 25129G   26099.16668981  .00040657  00000+0  33967-2 0  9994", "line2": "2 64418  70.0022 357.7887 0002685 275.3529 242.4402 14.98316944  5715"}, {"name": "STARLINK-34512", "line1": "1 64419U 25129H   26099.12475731  .00002150  00000+0  18792-3 0  9996", "line2": "2 64419  70.0028 357.8171 0002817 266.5476  93.5361 14.98334633 45784"}, {"name": "STARLINK-34503", "line1": "1 64420U 25129J   26099.12908623 -.00006411  00000+0 -53015-3 0  9992", "line2": "2 64420  70.0021 357.8331 0002921 270.0376  90.0448 14.98317967 45781"}, {"name": "STARLINK-34498", "line1": "1 64421U 25129K   26099.11640953  .00003413  00000+0  29361-3 0  9995", "line2": "2 64421  70.0020 357.7957 0002850 269.6758  90.4074 14.98335624 45849"}, {"name": "STARLINK-34434", "line1": "1 64422U 25129L   26099.16668981  .00040192  00000+0  33581-2 0  9995", "line2": "2 64422  70.0022 357.7910 0002602 275.1867 243.5009 14.98316766  5705"}, {"name": "STARLINK-34467", "line1": "1 64423U 25129M   26098.97036504  .00002071  00000+0  18128-3 0  9999", "line2": "2 64423  70.0019 358.0881 0002485 270.4741  89.6133 14.98335203 45822"}, {"name": "STARLINK-34468", "line1": "1 64424U 25129N   26099.00779824  .00490511  00000+0  37716-1 0  9996", "line2": "2 64424  70.0031 358.2135 0004349 290.4406  69.6286 14.99351217 45823"}, {"name": "STARLINK-34452", "line1": "1 64425U 25129P   26099.15828720  .00002200  00000+0  19210-3 0  9998", "line2": "2 64425  70.0019 357.5362 0002617 272.5311  87.5549 14.98335937 45850"}, {"name": "STARLINK-34432", "line1": "1 64426U 25129Q   26099.10805853  .00001910  00000+0  16783-3 0  9995", "line2": "2 64426  70.0020 357.7603 0002698 271.1340  88.9509 14.98335589 45785"}, {"name": "STARLINK-34480", "line1": "1 64427U 25129R   26099.09136079  .00002236  00000+0  19509-3 0  9992", "line2": "2 64427  70.0024 357.7015 0002608 268.2162  91.8699 14.98336922 45849"}, {"name": "STARLINK-34495", "line1": "1 64428U 25129S   26098.96617144  .00042762  00000+0  35617-2 0  9990", "line2": "2 64428  70.0045 358.0752 0002553 259.6922 100.3950 14.98418832 45827"}, {"name": "STARLINK-34501", "line1": "1 64429U 25129T   26098.99541270  .00004080  00000+0  34947-3 0  9997", "line2": "2 64429  70.0023 358.1727 0002692 272.6796  87.4055 14.98336499 45824"}, {"name": "STARLINK-34441", "line1": "1 64430U 25129U   26099.11223281  .00003612  00000+0  31032-3 0  9995", "line2": "2 64430  70.0022 357.7800 0003034 278.0179  82.0636 14.98337789 45849"}, {"name": "STARLINK-34524", "line1": "1 64431U 25129V   26099.16229614  .00003778  00000+0  32415-3 0  9996", "line2": "2 64431  70.0020 357.5522 0002759 270.3222  89.7621 14.98339355 45797"}, {"name": "STARLINK-34506", "line1": "1 64432U 25129W   26099.01208082 -.00000189  00000+0 -80189-5 0  9995", "line2": "2 64432  70.0027 357.8299 0002755 265.0891  94.9953 14.98343788 45777"}, {"name": "STARLINK-34451", "line1": "1 64433U 25129X   26099.13327720  .00006174  00000+0  52444-3 0  9999", "line2": "2 64433  70.0023 357.8465 0002878 270.1872  89.8958 14.98353117 45787"}, {"name": "STARLINK-34472", "line1": "1 64434U 25129Y   26099.11671903 -.00368915  00000+0 -33187-1 0  9990", "line2": "2 64434  70.0050 357.7917 0009278 302.0419  57.9837 14.97554060 45840"}, {"name": "STARLINK-34478", "line1": "1 64435U 25129Z   26099.16668981  .00029315  00000+0  24548-2 0  9996", "line2": "2 64435  70.0016 357.5654 0002756 278.1004  82.2765 14.98322999  5703"}, {"name": "STARLINK-34396", "line1": "1 64436U 25129AA  26099.12494058  .00007736  00000+0  65525-3 0  9999", "line2": "2 64436  70.0023 357.8100 0002477 274.8379  85.2497 14.98339814 45780"}, {"name": "STARLINK-34507", "line1": "1 64437U 25129AB  26099.15411344  .00004195  00000+0  35896-3 0  9994", "line2": "2 64437  70.0024 357.5207 0002906 267.0818  93.0009 14.98355826 45851"}, {"name": "STARLINK-34465", "line1": "1 64438U 25130A   26099.06158590  .00001205  00000+0  52814-4 0  9997", "line2": "2 64438  53.1584 307.4335 0001155  87.0102 273.1031 15.30200008 45351"}, {"name": "STARLINK-34456", "line1": "1 64439U 25130B   26098.98573207  .00025167  00000+0  85896-3 0  9992", "line2": "2 64439  53.1594 307.6699 0001064  84.6978 275.4144 15.30200050 45347"}, {"name": "STARLINK-34410", "line1": "1 64440U 25130C   26099.10686239  .00019108  00000+0  65541-3 0  9992", "line2": "2 64440  53.1608 307.0009 0000994  91.0957 269.0158 15.30209705 45366"}, {"name": "STARLINK-34453", "line1": "1 64441U 25130D   26098.88148454  .00024552  00000+0  83806-3 0  9992", "line2": "2 64441  53.1605 308.4369 0001307  88.2465 271.8686 15.30210243 45321"}, {"name": "STARLINK-34404", "line1": "1 64442U 25130E   26099.06476445  .00009145  00000+0  32051-3 0  9995", "line2": "2 64442  53.1579 307.4496 0001071  87.3939 272.7185 15.30200521 45351"}, {"name": "STARLINK-34403", "line1": "1 64443U 25130F   26098.97834359  .00026853  00000+0  91559-3 0  9990", "line2": "2 64443  53.1602 307.6181 0000843  77.7014 282.4081 15.30196302 45348"}, {"name": "STARLINK-34399", "line1": "1 64444U 25130G   26099.01421357  .00030164  00000+0  10250-2 0  9995", "line2": "2 64444  53.1587 307.8425 0001002  92.2477 267.8638 15.30244740 45342"}, {"name": "STARLINK-34398", "line1": "1 64445U 25130H   26098.95735615  .00014631  00000+0  50532-3 0  9992", "line2": "2 64445  53.1608 308.1995 0000656 102.3520 257.7554 15.30188384 45334"}, {"name": "STARLINK-34402", "line1": "1 64446U 25130J   26098.96990322  .00023458  00000+0  80182-3 0  9993", "line2": "2 64446  53.1602 307.5680 0001149  68.5572 291.5551 15.30193125 45344"}, {"name": "STARLINK-34450", "line1": "1 64447U 25130K   26099.08586998  .00022020  00000+0  75345-3 0  9997", "line2": "2 64447  53.1590 307.5793 0001010  93.0808 267.0308 15.30197505 45353"}, {"name": "STARLINK-34433", "line1": "1 64448U 25130L   26098.96262784  .00010204  00000+0  35615-3 0  9995", "line2": "2 64448  53.1610 308.2307 0001077  70.1550 289.9567 15.30200696 45333"}, {"name": "STARLINK-34459", "line1": "1 64449U 25130M   26099.13852066  .00014664  00000+0  50623-3 0  9994", "line2": "2 64449  53.1583 307.1938 0000787  83.5338 276.5752 15.30201792 45369"}, {"name": "STARLINK-34361", "line1": "1 64450U 25130N   26098.87198680  .00015359  00000+0  52971-3 0  9991", "line2": "2 64450  53.1572 308.3731 0000786  75.6560 284.4528 15.30194845 46495"}, {"name": "STARLINK-34392", "line1": "1 64451U 25130P   26098.96051726  .00014486  00000+0  50026-3 0  9990", "line2": "2 64451  53.1603 308.2150 0000964  89.3280 270.7831 15.30199435 45331"}, {"name": "STARLINK-34367", "line1": "1 64452U 25130Q   26099.11319499  .00018353  00000+0  63029-3 0  9997", "line2": "2 64452  53.1593 307.0377 0001032  85.9206 274.1912 15.30198620 45350"}, {"name": "STARLINK-34221", "line1": "1 64453U 25130R   26099.13641184  .00011900  00000+0  41326-3 0  9996", "line2": "2 64453  53.1585 307.1845 0001084  89.9328 270.1797 15.30201180 45363"}, {"name": "STARLINK-34282", "line1": "1 64454U 25130S   26098.96632241  .00015147  00000+0  52247-3 0  9992", "line2": "2 64454  53.1600 310.3817 0000911  80.5687 279.5416 15.30200858 45306"}, {"name": "STARLINK-34295", "line1": "1 64455U 25130T   26099.01739195  .00007697  00000+0  27173-3 0  9997", "line2": "2 64455  53.1599 307.8604 0001248  65.7339 294.3792 15.30200401 45342"}, {"name": "STARLINK-34430", "line1": "1 64456U 25130U   26099.10579433  .00035146  00000+0  11912-2 0  9998", "line2": "2 64456  53.1605 306.9862 0001419  99.0837 261.0325 15.30254734 45363"}, {"name": "STARLINK-34445", "line1": "1 64457U 25130V   26098.87409593  .00012151  00000+0  42168-3 0  9990", "line2": "2 64457  53.1584 308.3859 0001000  94.5178 265.5937 15.30201518 45322"}, {"name": "STARLINK-34439", "line1": "1 64458U 25130W   26099.11004764  .00025030  00000+0  85405-3 0  9991", "line2": "2 64458  53.1607 307.0136 0001429  79.4508 280.6654 15.30211603 45361"}, {"name": "STARLINK-34421", "line1": "1 64459U 25130X   26099.00894792  .00014588  00000+0  50374-3 0  9991", "line2": "2 64459  53.1604 307.8054 0001225  65.9274 294.1855 15.30197700 45342"}, {"name": "STARLINK-34423", "line1": "1 64460U 25130Y   26098.84243869  .00009325  00000+0  32661-3 0  9999", "line2": "2 64460  53.1613 308.1847 0001289  92.3975 267.7173 15.30195498 45329"}, {"name": "STARLINK-34418", "line1": "1 64461U 25130Z   26099.01844402  .00016007  00000+0  55131-3 0  9992", "line2": "2 64461  53.1589 307.8632 0000894  92.5524 267.5579 15.30204652 45346"}, {"name": "STARLINK-34336", "line1": "1 64462U 25130AA  26098.84834757  .00015459  00000+0  53289-3 0  9997", "line2": "2 64462  53.1620 310.9964 0000955  85.4894 274.6215 15.30205715 45285"}, {"name": "STARLINK-34400", "line1": "1 64463U 25130AB  26098.97265642  .00010612  00000+0  36992-3 0  9991", "line2": "2 64463  53.1615 310.4165 0001542  87.4884 272.6294 15.30197979 45302"}]